STARLINK-37718          
1 69242U 26117E   26176.20020409  .00551741  00000+0  25184-2 0  9993
2 69242  53.1573 203.3339 0011118 218.4192 141.6041 15.81712387  4241
STARLINK-37735          
1 69243U 26117F   26176.32666965  .00304831  00000+0  14893-2 0  9991
2 69243  53.1565 202.7026 0001351  37.5070 322.6046 15.80942723  4268
STARLINK-37757          
1 69244U 26117G   26176.58335648 -.02290933  00000+0 -14801-1 0  9990
2 69244  53.1578 201.4135 0000863  79.0309 304.3436 15.78636464  5533
STARLINK-37767          
1 69245U 26117H   26176.58335648 -.02519491  00000+0 -15141-1 0  9992
2 69245  53.1574 201.3643 0000857  65.1369 341.7647 15.80553758  5534
STARLINK-35759          
1 69246U 26117J   26176.58335648 -.02526980  00000+0 -15215-1 0  9996
2 69246  53.1576 201.3325 0001126  55.5659   6.4952 15.80520080  5580
STARLINK-37238          
1 69247U 26117K   26176.58335648 -.02555954  00000+0 -25877-1 0  9995
2 69247  53.1589 201.4186 0000913  71.5322 307.7960 15.68117016  5537
STARLINK-37412          
1 69248U 26117L   26176.37526340  .00272369  00000+0  13416-2 0  9993
2 69248  53.1570 202.2846 0002808  20.2449 339.8684 15.80853152  4277
STARLINK-37398          
1 69249U 26117M   26176.45044590 -.01119866  00000+0 -84888-2 0  9991
2 69249  53.1578 202.0475 0000469 116.7280 243.3788 15.74366586  4285
STARLINK-37499          
1 69250U 26117N   26176.58335648 -.02587596  00000+0 -20293-1 0  9993
2 69250  53.1586 201.2905 0001154  53.9607  27.7475 15.74157364  5608
STARLINK-37489          
1 69251U 26117P   26176.58335648 -.01522168  00000+0 -13319-1 0  9998
2 69251  53.1588 201.3020 0000902  83.2626 353.2166 15.70979781  5602
STARLINK-37434          
1 69252U 26117Q   26176.58335648 -.02457669  00000+0 -33306-1 0  9991
2 69252  53.1591 201.4910 0000805  75.7734 267.4301 15.60702997  5535
STARLINK-37368          
1 69253U 26117R   26176.58335648 -.02292446  00000+0 -14618-1 0  9997
2 69253  53.1577 201.0809 0001090 124.2438  58.9305 15.78922003  5607
STARLINK-37517          
1 69254U 26117S   26175.79227102  .00263028  00000+0  12890-2 0  9996
2 69254  53.1564 205.0391 0001341  67.4348 292.6817 15.80990966  4184
STARLINK-37378          
1 69255U 26117T   26176.54926958 -.00889190  00000+0 -51056-2 0  9999
2 69255  53.1565 201.2270 0001452   7.3502 352.7541 15.80361821  4306
STARLINK-37396          
1 69256U 26117U   26176.54687090 -.01102263  00000+0 -64517-2 0  9997
2 69256  53.1571 201.2098 0001500 359.8863   0.2159 15.80069901  4305
STARLINK-37508          
1 69257U 26117V   26176.58335648 -.02552634  00000+0 -14992-1 0  9994
2 69257  53.1573 201.1181 0000455  61.2449 102.6493 15.81100753  5527
STARLINK-37276          
1 69258U 26117W   26176.58335648 -.02441746  00000+0 -38765-1 0  9990
2 69258  53.1595 201.1925 0001313  43.1657  81.6288 15.56533238  5520
STARLINK-37518          
1 69259U 26117X   26176.58335648 -.02429889  00000+0 -38427-1 0  9990
2 69259  53.1593 201.2080 0001241  43.6089  73.7516 15.56618152  5532
STARLINK-37478          
1 69260U 26117Y   26176.58335648  .00077019  00000+0  13798-2 0  9997
2 69260  53.1597 201.7266 0002108  78.0666 143.7458 15.49297204  5531
STARLINK-37506          
1 69261U 26117Z   26176.58335648 -.02157724  00000+0 -38828-1 0  9994
2 69261  53.1584 201.3211 0001167  82.8552 339.2588 15.52684016  5536
STARLINK-37503          
1 69262U 26117AA  26176.58335648 -.02544229  00000+0 -34900-1 0  9992
2 69262  53.1592 201.0753 0001335  68.2618 113.5536 15.60521795  5531
STARLINK-37502          
1 69263U 26117AB  26176.58335648 -.02531832  00000+0 -41367-1 0  9994
2 69263  53.1588 201.2268 0001294  50.7786  56.4699 15.55295234  5531
STARLINK-37486          
1 69264U 26117AC  26176.58335648 -.01552841  00000+0 -18757-1 0  9994
2 69264  53.1592 201.0594 0001677  69.1058 120.6619 15.63158879  5536
STARLINK-37435          
1 69265U 26117AD  26174.82160990 -.00361406  00000+0 -20734-2 0  9999
2 69265  53.1569 209.6360 0003756  20.7271 339.3902 15.79009549  4030
STARLINK-37464          
1 69266U 26117AE  26176.52663853 -.00218026  00000+0 -16283-2 0  9998
2 69266  53.1598 201.0685 0002851  26.6525 333.4640 15.72629650  4309
KUIPER-00282            
1 69267U 26118A   26175.97379005  .00025561  00000+0  76991-3 0  9992
2 69267  51.8543  16.0895 0013436 216.1139 143.8939 15.34091339  5175
KUIPER-00383            
1 69268U 26118B   26176.58335648  .00021942  00000+0  65932-3 0  9998
2 69268  51.8600  13.1106 0010794 216.1013 292.9800 15.34290859  4707
KUIPER-00527            
1 69269U 26118C   26176.54931744  .00029925  00000+0  87910-3 0  9993
2 69269  51.8627  13.1997 0009512 202.6781 157.3785 15.34837978  5260
KUIPER-00562            
1 69270U 26118D   26176.55946849  .00038146  00000+0  98221-3 0  9990
2 69270  51.8720  12.5412 0001319 134.3702 225.7394 15.38854748  5277
KUIPER-00570            
1 69271U 26118E   26174.14294476  .00489113  00000+0  13187-1 0  9996
2 69271  51.8587  24.8191 0009050 241.2053 118.8024 15.35254459  4895
