OBJECT_NAME,OBJECT_ID,EPOCH,MEAN_MOTION,ECCENTRICITY,INCLINATION,RA_OF_ASC_NODE,ARG_OF_PERICENTER,MEAN_ANOMALY,EPHEMERIS_TYPE,CLASSIFICATION_TYPE,NORAD_CAT_ID,ELEMENT_SET_NO,REV_AT_EPOCH,BSTAR,MEAN_MOTION_DOT,MEAN_MOTION_DDOT
STARLINK-37718,2026-117E,2026-06-25T04:48:17.633376,15.81712387,.0011118,53.1573,203.3339,218.4192,141.6041,0,U,69242,999,424,.25184262E-2,.551741E-2,0
STARLINK-37735,2026-117F,2026-06-25T07:50:24.257760,15.80942723,.00013511,53.1565,202.7026,37.5070,322.6046,0,U,69243,999,426,.14892935E-2,.304831E-2,0
STARLINK-37757,2026-117G,2026-06-25T14:00:01.999872,15.78636464,.00008634,53.1578,201.4135,79.0309,304.3436,0,U,69244,999,553,-.148007E-1,-.2290933E-1,0
STARLINK-37767,2026-117H,2026-06-25T14:00:01.999872,15.80553758,.00008576,53.1574,201.3643,65.1369,341.7647,0,U,69245,999,553,-.15140636E-1,-.2519491E-1,0
STARLINK-35759,2026-117J,2026-06-25T14:00:01.999872,15.80520080,.00011265,53.1576,201.3325,55.5659,6.4952,0,U,69246,999,558,-.15215114E-1,-.252698E-1,0
STARLINK-37238,2026-117K,2026-06-25T14:00:01.999872,15.68117016,.00009138,53.1589,201.4186,71.5322,307.7960,0,U,69247,999,553,-.25876605E-1,-.2555954E-1,0
STARLINK-37412,2026-117L,2026-06-25T09:00:22.757760,15.80853152,.00028089,53.1570,202.2846,20.2449,339.8684,0,U,69248,999,427,.13415521E-2,.272369E-2,0
STARLINK-37398,2026-117M,2026-06-25T10:48:38.525760,15.74366586,.00004691,53.1578,202.0475,116.7280,243.3788,0,U,69249,999,428,-.84888475E-2,-.1119866E-1,0
STARLINK-37499,2026-117N,2026-06-25T14:00:01.999872,15.74157364,.00011543,53.1586,201.2905,53.9607,27.7475,0,U,69250,999,560,-.20292847E-1,-.2587596E-1,0
STARLINK-37489,2026-117P,2026-06-25T14:00:01.999872,15.70979781,.0000902,53.1588,201.3020,83.2626,353.2166,0,U,69251,999,560,-.13318562E-1,-.1522168E-1,0
STARLINK-37434,2026-117Q,2026-06-25T14:00:01.999872,15.60702997,.0000805,53.1591,201.4910,75.7734,267.4301,0,U,69252,999,553,-.33305516E-1,-.2457669E-1,0
STARLINK-37368,2026-117R,2026-06-25T14:00:01.999872,15.78922003,.00010908,53.1577,201.0809,124.2438,58.9305,0,U,69253,999,560,-.14617803E-1,-.2292446E-1,0
STARLINK-37517,2026-117S,2026-06-24T19:00:52.216128,15.80990966,.00013417,53.1564,205.0391,67.4348,292.6817,0,U,69254,999,418,.12889624E-2,.263028E-2,0
STARLINK-37378,2026-117T,2026-06-25T13:10:56.891712,15.80361821,.00014528,53.1565,201.2270,7.3502,352.7541,0,U,69255,999,430,-.51055721E-2,-.88919E-2,0
STARLINK-37396,2026-117U,2026-06-25T13:07:29.645760,15.80069901,.00015005,53.1571,201.2098,359.8863,0.2159,0,U,69256,999,430,-.6451722E-2,-.1102263E-1,0
STARLINK-37508,2026-117V,2026-06-25T14:00:01.999872,15.81100753,.0000455,53.1573,201.1181,61.2449,102.6493,0,U,69257,999,552,-.14991959E-1,-.2552634E-1,0
STARLINK-37276,2026-117W,2026-06-25T14:00:01.999872,15.56533238,.00013138,53.1595,201.1925,43.1657,81.6288,0,U,69258,999,552,-.38764964E-1,-.2441746E-1,0
STARLINK-37518,2026-117X,2026-06-25T14:00:01.999872,15.56618152,.00012412,53.1593,201.2080,43.6089,73.7516,0,U,69259,999,553,-.38426538E-1,-.2429889E-1,0
STARLINK-37478,2026-117Y,2026-06-25T14:00:01.999872,15.49297204,.00021088,53.1597,201.7266,78.0666,143.7458,0,U,69260,999,553,.13797592E-2,.77019E-3,0
STARLINK-37506,2026-117Z,2026-06-25T14:00:01.999872,15.52684016,.00011673,53.1584,201.3211,82.8552,339.2588,0,U,69261,999,553,-.38827987E-1,-.2157724E-1,0
STARLINK-37503,2026-117AA,2026-06-25T14:00:01.999872,15.60521795,.00013352,53.1592,201.0753,68.2618,113.5536,0,U,69262,999,553,-.34900384E-1,-.2544229E-1,0
STARLINK-37502,2026-117AB,2026-06-25T14:00:01.999872,15.55295234,.00012947,53.1588,201.2268,50.7786,56.4699,0,U,69263,999,553,-.41367184E-1,-.2531832E-1,0
STARLINK-37486,2026-117AC,2026-06-25T14:00:01.999872,15.63158879,.00016773,53.1592,201.0594,69.1058,120.6619,0,U,69264,999,553,-.18756763E-1,-.1552841E-1,0
STARLINK-37435,2026-117AD,2026-06-23T19:43:07.095360,15.79009549,.00037564,53.1569,209.6360,20.7271,339.3902,0,U,69265,999,403,-.20733796E-2,-.361406E-2,0
STARLINK-37464,2026-117AE,2026-06-25T12:38:21.568992,15.72629650,.00028511,53.1598,201.0685,26.6525,333.4640,0,U,69266,999,430,-.16282968E-2,-.218026E-2,0
KUIPER-00282,2026-118A,2026-06-24T23:22:15.460320,15.34091339,.00134363,51.8543,16.0895,216.1139,143.8939,0,U,69267,999,517,.76991344E-3,.25561E-3,0
KUIPER-00383,2026-118B,2026-06-25T14:00:01.999872,15.34290859,.00107946,51.8600,13.1106,216.1013,292.9800,0,U,69268,999,470,.65931688E-3,.21942E-3,0
KUIPER-00527,2026-118C,2026-06-25T13:11:01.026816,15.34837978,.00095121,51.8627,13.1997,202.6781,157.3785,0,U,69269,999,526,.87909539E-3,.29925E-3,0
KUIPER-00562,2026-118D,2026-06-25T13:25:38.077536,15.38854748,.00013194,51.8720,12.5412,134.3702,225.7394,0,U,69270,999,527,.98221014E-3,.38146E-3,0
KUIPER-00570,2026-118E,2026-06-23T03:25:50.427264,15.35254459,.00090509,51.8587,24.8191,241.2053,118.8024,0,U,69271,999,489,.13187335E-1,.489113E-2,0
